SARSAT 7 (NOAA 15)      
1 25338U 98030A   20127.40381849  .00000069  00000-0  47528-4 0  9995
2 25338  98.7205 152.6613 0010886  31.3675 328.8152 14.25962781143244
METEOSAT-8 (MSG-1)      
1 27509U 02040B   20127.42132785  .00000130  00000-0  00000+0 0  9996
2 27509   6.6540  54.2729 0001787 351.4401  12.0546  1.00273967 64863
GPS BIIR-08             
1 27663U 03005A   20127.20069465 -.00000044  00000-0  00000-0 0  9995
2 27663  56.0840 303.6213 0113906  35.0746 132.6977  2.00554191126520
GPS BIIR-11             
1 28190U 04009A   20126.49334517 -.00000076  00000-0  00000-0 0  9994
2 28190  56.2772   4.4416 0091655  92.0906  79.4040  2.00562675118188
GPS BIIR-12             
1 28361U 04023A   20126.91393190  .00000070  00000-0  00000-0 0  9992
2 28361  54.0596 177.1687 0143646 234.7621 127.0630  2.00390210116258
GPS BIIR-13             
1 28474U 04045A   20127.12564260 -.00000075  00000-0  00000-0 0  9999
2 28474  54.9438  54.5952 0199839 266.5532 279.4529  2.00561720113644
SARSAT 10 (NOAA 18)     
1 28654U 05018A   20127.44120740  .00000101  00000-0  79442-4 0  9995
2 28654  99.0474 183.4695 0013914 354.1114   5.9891 14.12508112771072
GPS BIIR-14M            
1 28874U 05038A   20126.55899096 -.00000074  00000-0  00000-0 0  9999
2 28874  56.3822   1.8224 0134521 266.0413 333.7237  2.00561671107039
METEOSAT-9 (MSG-2)      
1 28912U 05049B   20127.13174913  .00000010  00000-0  00000-0 0  9992
2 28912   4.3374  70.2852 0001752 354.2512 210.6825  1.00267906 52648
GOES 13                 
1 29155U 06018A   20127.13406528  .00000031  00000-0  00000-0 0  9992
2 29155   0.2405 268.8027 0004136 291.0559 134.0075  1.00272199 20972
SARSAT 11 (METOP-A)     
1 29499U 06044A   20127.56766598  .00000001  00000-0  19746-4 0  9993
2 29499  98.5266 175.7839 0001535  76.4863  48.4015 14.21496857702939
GPS BIIR-16M            
1 29601U 06052A   20126.78292075 -.00000040  00000-0  00000-0 0  9997
2 29601  56.0695 302.5570 0078912  64.8931 295.9132  2.00560633 98611
GPS BIIR-17M            
1 32260U 07047A   20127.08633938  .00000072  00000-0  00000+0 0  9991
2 32260  53.1843 172.5447 0120586  49.4275 311.7041  2.00562640 92049
GPS BIIR-18M            
1 32384U 07062A   20127.15535453 -.00000077  00000-0  00000-0 0  9993
2 32384  56.4767   2.4706 0011940 112.3639  67.6754  2.00573763 90766
SARSAT 12 (NOAA 19)     
1 33591U 09005A   20127.15875742  .00000065  00000-0  60493-4 0  9993
2 33591  99.1965 131.4054 0013777 190.3091 169.7799 14.12406461579163
GOES 14                 
1 35491U 09033A   20127.26517390 -.00000103  00000-0  00000-0 0  9997
2 35491   0.2218  98.0694 0007839 125.5989 352.2054  1.00270651 39734
GOES 15                 
1 36411U 10008A   20127.25946825  .00000046  00000-0  00000-0 0  9997
2 36411   0.2156 274.7542 0002543 144.0538 130.8923  1.00269129 37287
GLONASS-K 1             
1 37372U 11009A   20127.12573251 -.00000068  00000-0  00000-0 0  9996
2 37372  65.8517  29.1773 0008073 235.5509  42.3989  2.13107429 71509
GPS BIIF-2              
1 37753U 11036A   20127.45072420 -.00000070  00000-0  00000+0 0  9999
2 37753  56.1478  58.9283 0096370  43.2611 141.1365  2.00569231 64486
GSAT0101 (GALILEO-PFM)  
1 37846U 11060A   20126.71806762 -.00000085  00000-0  00000-0 0  9998
2 37846  56.6022  42.4579 0004377 351.2446   8.7436  1.70475334 53042
GSAT0102 (GALILEO-FM2)  
1 37847U 11060B   20126.18237413 -.00000083  00000-0  00000+0 0  9998
2 37847  56.6026  42.4719 0005356 328.6025 108.6878  1.70475419 53169
LUCH 5A                 
1 37951U 11074B   20127.60360642 -.00000053  00000-0  00000+0 0  9995
2 37951   3.1679 116.1844 0004495 305.3993 187.5182  1.00272527 30801
METEOSAT-10 (MSG-3)     
1 38552U 12035B   20127.20553059  .00000051  00000-0  00000+0 0  9990
2 38552   0.9959   9.7112 0000856  29.2269 268.7079  1.00271692 28823
SARSAT 13 (METOP-B)     
1 38771U 12049A   20127.19132524  .00000003  00000-0  21138-4 0  9993
2 38771  98.6951 187.1344 0002169 112.6671 339.4137 14.21491758396028
GPS BIIF-3              
1 38833U 12053A   20127.18809651 -.00000013  00000-0  00000-0 0  9991
2 38833  53.6620 235.0698 0094994  37.2004 323.4557  2.00565211 54766
GSAT0103 (GALILEO-FM3)  
1 38857U 12055A   20126.76031183  .00000072  00000-0  00000-0 0  9993
2 38857  54.9700 162.9555 0004971 267.3074  92.7241  1.70473692 47084
GSAT0104 (GALILEO-FM4)  
1 38858U 12055B   20126.10808125  .00000073  00000-0  00000+0 0  9990
2 38858  54.9703 162.9728 0003841 272.9873  87.0573  1.70473634 47029
GPS BIIF-4              
1 39166U 13023A   20127.04529136 -.00000074  00000-0  00000-0 0  9998
2 39166  56.0473 358.4653 0081247  30.1756 330.3405  2.00565134 51099
INSAT-3D                
1 39216U 13038B   20127.07574368 -.00000165  00000-0  00000+0 0  9990
2 39216   0.0453   3.5306 0002023  51.8802 278.3505  1.00271009 24919
GPS BIIF-5              
1 39533U 14008A   20126.55043477 -.00000023  00000-0  00000-0 0  9998
2 39533  53.7805 240.5266 0046131 197.3652 162.4682  2.00565481 44903
LUCH 5V                 
1 39727U 14023A   20127.31326924 -.00000279  00000-0  00000-0 0  9999
2 39727   0.5956 325.7675 0003856  99.2333   7.1515  1.00271091540134
GPS BIIF-6              
1 39741U 14026A   20126.33322933 -.00000065  00000-0  00000-0 0  9998
2 39741  56.1223  58.5001 0021705 295.8401  63.9171  2.00580229 43730
GPS BIIF-7              
1 40105U 14045A   20126.41772872  .00000070  00000-0  00000+0 0  9999
2 40105  54.5856 177.6674 0013246 106.0359 254.1958  2.00555476 42164
GSAT0201 (GALILEO 5)    
1 40128U 14050A   20126.28030194 -.00000096  00000-0  00000+0 0  9998
2 40128  50.5742   3.0942 1664869  97.8912 281.2594  1.85518611 38811
GSAT0202 (GALILEO 6)    
1 40129U 14050B   20127.08320648 -.00000100  00000-0  00000-0 0  9991
2 40129  50.6122   2.0971 1662976  98.7420 280.3844  1.85519271 39055
GPS BIIF-8              
1 40294U 14068A   20126.28722157  .00000060  00000-0  00000-0 0  9999
2 40294  55.3236 118.5965 0026430  35.8383 324.3486  2.00576331 40400
GLONASS-K 2             
1 40315U 14075A   20127.14785598 -.00000023  00000-0  00000+0 0  9994
2 40315  63.9080 268.2924 0015811 204.4064 186.3527  2.13098618 42275
GPS BIIF-9              
1 40534U 15013A   20126.92449915 -.00000045  00000-0  00000+0 0  9999
2 40534  54.2610 296.6182 0046982  10.4066 349.6687  2.00570650 37464
GSAT0203 (GALILEO 7)    
1 40544U 15017A   20126.49867025 -.00000085  00000-0  00000+0 0  9996
2 40544  56.3950  42.6038 0003349 282.4745  77.4833  1.70474435 31787
GSAT0204 (GALILEO 8)    
1 40545U 15017B   20126.28003616 -.00000084  00000-0  00000-0 0  9992
2 40545  56.4013  42.6255 0000811 277.7378  82.2479  1.70474912 31780
GPS BIIF-10             
1 40730U 15033A   20127.08259582 -.00000075  00000-0  00000+0 0  9999
2 40730  55.5647 357.6551 0053755 352.4092   7.5596  2.00565142 35229
METEOSAT-11 (MSG-4)     
1 40732U 15034A   20127.23729830 -.00000011  00000-0  00000-0 0  9998
2 40732   0.4642 213.1996 0001010 260.3527 196.3228  1.00276824 17652
GSAT0205 (GALILEO 9)    
1 40889U 15045A   20125.93656908 -.00000028  00000-0  00000-0 0  9991
2 40889  56.1882 283.2961 0004149  31.4787 328.5036  1.70475193 28925
GSAT0206 (GALILEO 10)   
1 40890U 15045B   20126.74272678 -.00000034  00000-0  00000+0 0  9997
2 40890  56.1867 283.2704 0002367  35.1398 324.8289  1.70475313 28961
GPS BIIF-11             
1 41019U 15062A   20127.13402490  .00000049  00000-0  00000-0 0  9997
2 41019  55.3212 118.3880 0056906 211.3479 148.3159  2.00564338 33049
ELEKTRO-L 2             
1 41105U 15074A   20126.74910372 -.00000104  00000-0  00000-0 0  9998
2 41105   1.0976  97.7899 0002604 330.4566 141.4729  1.00270839 16122
GSAT0209 (GALILEO 12)   
1 41174U 15079A   20126.91502205  .00000072  00000-0  00000-0 0  9993
2 41174  54.9843 162.6486 0005885 301.5391  58.4915  1.70473590 26874
GSAT0208 (GALILEO 11)   
1 41175U 15079B   20125.96160881  .00000073  00000-0  00000+0 0  9998
2 41175  54.9825 162.6743 0005061 300.8078  59.2306  1.70473723 27277
GPS BIIF-12             
1 41328U 16007A   20126.22867552  .00000069  00000-0  00000+0 0  9994
2 41328  54.8224 178.1499 0040694 221.8483 137.9245  2.00558982 31087
GSAT0211 (GALILEO 14)   
1 41549U 16030A   20126.08373177 -.00000029  00000-0  00000-0 0  9992
2 41549  56.3301 283.1404 0002199 341.4981  18.4503  1.70474937 24588
GSAT0210 (GALILEO 13)   
1 41550U 16030B   20126.96326998 -.00000034  00000-0  00000-0 0  9996
2 41550  56.3284 283.1181 0001106 280.1752  79.7642  1.70475060 24597
INSAT-3DR               
1 41752U 16054A   20127.07408619 -.00000086  00000-0  00000+0 0  9996
2 41752   0.1727  93.7286 0010875 183.5164  47.8042  1.00270994 13407
GSAT0207 (GALILEO 15)   
1 41859U 16069A   20127.20796118  .00000070  00000-0  00000-0 0  9992
2 41859  54.6430 163.0137 0005866 290.9460  69.0790  1.70473546 21491
GSAT0212 (GALILEO 16)   
1 41860U 16069B   20127.06139921  .00000070  00000-0  00000-0 0  9991
2 41860  54.6406 163.0168 0004658 306.4683  53.5769  1.70473546 21582
GSAT0213 (GALILEO 17)   
1 41861U 16069C   20126.84070207  .00000071  00000-0  00000-0 0  9999
2 41861  54.6431 163.0267 0005143 274.0247  86.0049  1.70473601 21581
GSAT0214 (GALILEO 18)   
1 41862U 16069D   20125.81451520  .00000072  00000-0  00000-0 0  9998
2 41862  54.6408 163.0507 0004333 278.4220  81.6171  1.70473558 21557
GOES 16                 
1 41866U 16071A   20127.46824497 -.00000257  00000-0  00000+0 0  9990
2 41866   0.0127 272.6158 0001187 167.2557 238.2773  1.00272796 12726
GSAT-17                 
1 42815U 17040B   20127.07039551 -.00000267  00000-0  00000+0 0  9999
2 42815   0.0965  98.6427 0002318 216.4888  28.0920  1.00271065 10485
GSAT0215 (GALILEO 19)   
1 43055U 17079A   20125.13110973 -.00000022  00000-0  00000-0 0  9991
2 43055  56.3043 283.0112 0000472 256.4306 103.5265  1.70474162 14881
GSAT0216 (GALILEO 20)   
1 43056U 17079B   20126.59705609 -.00000032  00000-0  00000+0 0  9999
2 43056  56.3043 282.9705 0002382 269.8451  90.0811  1.70474299 14898
GSAT0217 (GALILEO 21)   
1 43057U 17079C   20127.40368119 -.00000036  00000-0  00000+0 0  9996
2 43057  56.3014 282.9493 0001993 295.3389  64.5905  1.70474231 14922
GSAT0218 (GALILEO 22)   
1 43058U 17079D   20126.45049234 -.00000032  00000-0  00000-0 0  9992
2 43058  56.3029 282.9727 0002860 263.3492  96.5725  1.70474234 14932
GOES 17                 
1 43226U 18022A   20127.56542206  .00000088  00000-0  00000+0 0  9997
2 43226   0.0123 273.2847 0000760 151.1989 226.7501  1.00272742  8045
GSAT0221 (GALILEO 25)   
1 43564U 18060A   20126.93697288 -.00000086  00000-0  00000+0 0  9994
2 43564  56.7835  42.2078 0004543 294.7885  65.1612  1.70475398 11108
GSAT0222 (GALILEO 26)   
1 43565U 18060B   20127.15682566 -.00000086  00000-0  00000+0 0  9993
2 43565  56.7860  42.2010 0004534 303.4010  56.5531  1.70475407 11140
GSAT0219 (GALILEO 23)   
1 43566U 18060C   20126.79048140 -.00000085  00000-0  00000+0 0  9996
2 43566  56.7861  42.2127 0004094 300.5452  59.4111  1.70475275 11116
GSAT0220 (GALILEO 24)   
1 43567U 18060D   20127.01036089 -.00000086  00000-0  00000-0 0  9994
2 43567  56.7859  42.2071 0004233 300.5323  59.4231  1.70475125 11100
BEIDOU-3 M13            
1 43622U 18072A   20126.54658912  .00000089  00000-0  00000-0 0  9993
2 43622  55.1230 137.3611 0008623 284.5248 254.5201  1.86231764 11053
BEIDOU-3 M14            
1 43623U 18072B   20127.42019325  .00000077  00000-0  00000+0 0  9997
2 43623  55.1250 137.3237 0007190 303.7532 191.2049  1.86231816 11075
METEOR-M2 2             
1 44387U 19038A   20127.40943932 -.00000038  00000-0  23758-5 0  9995
2 44387  98.6162  88.2945 0001791  37.7696 322.3608 14.23678625 43557
